OBJECT_NAME,OBJECT_ID,EPOCH,MEAN_MOTION,ECCENTRICITY,INCLINATION,RA_OF_ASC_NODE,ARG_OF_PERICENTER,MEAN_ANOMALY,EPHEMERIS_TYPE,CLASSIFICATION_TYPE,NORAD_CAT_ID,ELEMENT_SET_NO,REV_AT_EPOCH,BSTAR,MEAN_MOTION_DOT,MEAN_MOTION_DDOT
BEIDOU-2 IGSO-5 (C10),2011-073A,2026-07-02T17:30:18.330912,1.00270596,.01145273,47.6496,271.3544,222.0502,141.5350,0,U,37948,999,5329,0,-.128E-5,0
LUCH 5A (SDCM/PRN 140),2011-074B,2026-07-23T15:08:25.769184,1.00274995,.0002921,8.8435,73.2695,62.7569,199.4938,0,U,37951,999,5341,0,-.51E-6,0
BEIDOU-2 G5 (C05),2012-008A,2026-07-23T20:06:24.052896,1.00273807,.0007,3.6630,69.4633,271.4859,320.8876,0,U,38091,999,5273,0,.59E-6,0
BEIDOU-2 M3 (C11),2012-018A,2026-07-23T16:50:41.036640,1.86229831,.0021129,55.7238,303.6434,272.2048,87.5851,0,U,38250,999,9662,0,-.96E-6,0
BEIDOU-2 M4 (C12),2012-018B,2026-07-23T15:13:16.736736,1.86229554,.0012306,55.6237,302.8566,271.9994,87.8924,0,U,38251,999,9662,0,-.95E-6,0
SES-5 (EGNOS/PRN 136),2012-036A,2026-07-23T14:43:08.992992,1.00270882,.0002301,0.0430,324.3782,152.2057,50.5140,0,U,38652,999,4482,0,.38E-6,0
BEIDOU-2 M6 (C14),2012-050B,2026-07-20T02:55:43.188960,1.86230986,.00127267,56.5733,61.8055,2.2324,357.8361,0,U,38775,999,9392,0,-.77E-6,0
GSAT-10 (GAGAN/PRN 128),2012-051B,2026-07-23T20:13:23.383200,1.00272335,.0007665,0.0703,261.8894,194.6566,231.3849,0,U,38779,999,5046,0,-.16E-5,0
GPS BIIF-3  (PRN 24),2012-053A,2026-07-23T05:06:38.117088,2.00568155,.018255,53.5904,142.1233,66.3747,295.5069,0,U,38833,999,10016,0,-.8E-7,0
GSAT0103 (GALILEO-FM3),2012-055A,2026-07-19T03:38:04.424640,1.70473478,.0003622,55.8248,100.6680,312.6356,47.3724,0,U,38857,999,8555,0,-.35E-6,0
BEIDOU-2 G6 (C02),2012-059A,2026-07-23T15:05:40.985376,1.00273149,.0008928,4.5115,73.1264,329.8199,208.8701,0,U,38953,999,5027,0,-.175E-5,0
LUCH 5B (SDCM/PRN 125),2012-061A,2026-07-23T19:45:06.985728,1.00270938,.000388,10.5609,49.5130,141.5559,30.4474,0,U,38977,999,4997,0,-.141E-5,0
COSMOS 2485 (747),2013-019A,2026-07-23T01:01:54.411168,2.13103192,.0022553,65.4401,72.4015,230.4230,129.4454,0,U,39155,999,10304,0,-.47E-6,0
GPS BIIF-4  (PRN 27),2013-023A,2026-07-23T13:54:24.619104,2.00563677,.0141416,54.4766,267.4892,51.1083,310.2165,0,U,39166,999,9661,0,-.9E-7,0
IRNSS-1A,2013-034A,2026-07-22T16:42:46.468224,1.00271851,.00187917,35.7966,63.3613,179.4799,3.3059,0,U,39199,999,4772,0,.51E-6,0
GPS BIIF-5  (PRN 30),2014-008A,2026-07-23T01:59:08.716128,2.00562163,.0084019,53.6583,147.8555,231.5745,127.6451,0,U,39533,999,9040,0,.4E-7,0
ASTRA 5B (EGNOS/PRN 123),2014-011B,2026-07-23T20:51:38.651040,1.00273045,.0002262,0.0607,314.8028,175.3919,147.7552,0,U,39617,999,4503,0,.142E-5,0
COSMOS 2492 (754),2014-012A,2026-07-23T11:18:23.738976,2.13103261,.0010366,65.2739,312.7022,315.8790,44.0582,0,U,39620,999,9601,0,-.88E-6,0
IRNSS-1B,2014-017A,2026-07-22T16:42:46.468224,1.00267424,.00213406,28.8725,239.7926,191.4522,174.9685,0,U,39635,999,4515,0,.145E-5,0
LUCH 5V (SDCM/PRN 141),2014-023A,2026-07-23T20:27:21.511584,1.00271434,.0002416,5.2213,69.3619,79.0706,194.7306,0,U,39727,999,4472,0,-.268E-5,0
GPS BIIF-6  (PRN 06),2014-026A,2026-07-23T08:37:01.727328,2.00558475,.0038204,56.4786,330.1096,325.5236,34.2337,0,U,39741,999,8926,0,-.111E-5,0
COSMOS 2500 (755),2014-032A,2026-07-23T04:06:27.448992,2.13105924,.0008517,65.2090,312.4566,191.8913,168.1090,0,U,40001,999,9422,0,-.89E-6,0
GPS BIIF-7  (PRN 09),2014-045A,2026-07-23T10:48:53.599968,2.00561117,.0034748,55.3768,87.0199,118.5514,241.8496,0,U,40105,999,8680,0,-.67E-6,0
GSAT0201 (GALILEO 5),2014-050A,2026-07-21T21:53:14.723808,1.85519659,.16792967,48.8375,272.0101,180.7600,179.0021,0,U,40128,999,7896,0,-.55E-6,0
GSAT0202 (GALILEO 6),2014-050B,2026-07-22T16:57:11.028096,1.85520638,.1680735,48.8542,271.0635,181.4997,177.9799,0,U,40129,999,8114,0,-.45E-6,0
IRNSS-1C,2014-061A,2026-07-23T15:05:26.007936,1.00270971,.0021856,6.6072,88.2365,6.4251,156.0981,0,U,40269,999,4305,0,-.163E-5,0
GPS BIIF-8  (PRN 03),2014-068A,2026-07-23T07:39:42.196032,2.00553866,.0067458,57.0124,29.5642,72.5690,288.2082,0,U,40294,999,8593,0,-.75E-6,0
COSMOS 2501 (702K),2014-075A,2026-07-22T00:37:12.613152,2.13101382,.0022621,63.6188,189.1661,212.4834,147.3802,0,U,40315,999,9059,0,.91E-6,0
GPS BIIF-9  (PRN 26),2015-013A,2026-07-23T11:02:21.611040,2.00574235,.0110283,53.1654,202.6776,40.1014,320.7251,0,U,40534,999,8255,0,.84E-6,0
GSAT0203 (GALILEO 7),2015-017A,2026-07-22T23:51:50.831712,1.70476506,.0002917,56.7737,340.6207,252.5717,107.3911,0,U,40544,999,6981,0,-.107E-5,0
GSAT0204 (GALILEO 8),2015-017B,2026-07-23T06:00:20.062080,1.70475959,.0003029,56.7812,340.6325,234.2784,125.6881,0,U,40545,999,3286,0,-.106E-5,0
